{"type": "FeatureCollection", "features": [ {"type": "Feature", "properties": {"norad_id": 30829, "name": "FENGYUN 1C DEB", "group": "fengyun-1c-debris", "lat": 47.4465797387795, "lon": -25.511100268212083, "alt_km": 858.5470348611334, "timestamp": "2025-12-17T15:50:10.058764+00:00", "meta": {"OBJECT_NAME": "FENGYUN 1C DEB", "OBJECT_ID": "1999-025AVP", "EPOCH": "2025-12-17T05:22:50.536992", "MEAN_MOTION": 14.08660989, "ECCENTRICITY": 0.00353029, "INCLINATION": 98.7772, "RA_OF_ASC_NODE": 343.7533, "ARG_OF_PERICENTER": 321.8624, "MEAN_ANOMALY": 38.0048, "EPHEMERIS_TYPE": 0, "CLASSIFICATION_TYPE": "U", "NORAD_CAT_ID": 30829, "ELEMENT_SET_NO": 999, "REV_AT_EPOCH": 96496, "BSTAR": 0.00035091646, "MEAN_MOTION_DOT": 5.64e-06, "MEAN_MOTION_DDOT": 0}, "tle": {"line1": "1 30829U 99025AVP 25351.22419603  .00000564  00000+0  35092-3 0  9996", "line2": "2 30829  98.7772 343.7533 0035302 321.8624  38.0048 14.08660989964969"}}, "geometry": {"type": "Point", "coordinates": [-25.511100268212083, 47.4465797387795]}}, {"type": "Feature", "properties": {"norad_id": 30830, "name": "FENGYUN 1C DEB", "group": "fengyun-1c-debris", "lat": -35.19199861293472, "lon": -13.848418451214515, "alt_km": 877.1749245483461, "timestamp": "2025-12-17T15:50:10.058773+00:00", "meta": {"OBJECT_NAME": "FENGYUN 1C DEB", "OBJECT_ID": "1999-025AVQ", "EPOCH": "2025-12-15T21:48:01.351008", "MEAN_MOTION": 14.12232465, "ECCENTRICITY": 0.00308204, "INCLINATION": 98.7294, "RA_OF_ASC_NODE": 338.2258, "ARG_OF_PERICENTER": 179.6677, "MEAN_ANOMALY": 244.9216, "EPHEMERIS_TYPE": 0, "CLASSIFICATION_TYPE": "U", "NORAD_CAT_ID": 30830, "ELEMENT_SET_NO": 999, "REV_AT_EPOCH": 96644, "BSTAR": 0.0002741184, "MEAN_MOTION_DOT": 4.63e-06, "MEAN_MOTION_DDOT": 0}, "tle": {"line1": "1 30830U 99025AVQ 25349.90834897  .00000463  00000+0  27412-3 0  9991", "line2": "2 30830  98.7294 338.2258 0030820 179.6677 244.9216 14.12232465966449"}}, "geometry": {"type": "Point", "coordinates": [-13.848418451214515, -35.19199861293472]}}, {"type": "Feature", "properties": {"norad_id": 30831, "name": "FENGYUN 1C DEB", "group": "fengyun-1c-debris", "lat": 37.75107986745171, "lon": -27.90677760796378, "alt_km": 805.8723552013134, "timestamp": "2025-12-17T15:50:10.058784+00:00", "meta": {"OBJECT_NAME": "FENGYUN 1C DEB", "OBJECT_ID": "1999-025AVR", "EPOCH": "2025-12-16T05:37:15.985920", "MEAN_MOTION": 14.31095192, "ECCENTRICITY": 0.00554083, "INCLINATION": 99.3281, "RA_OF_ASC_NODE": 143.2521, "ARG_OF_PERICENTER": 24.0971, "MEAN_ANOMALY": 336.2784, "EPHEMERIS_TYPE": 0, "CLASSIFICATION_TYPE": "U", "NORAD_CAT_ID": 30831, "ELEMENT_SET_NO": 999, "REV_AT_EPOCH": 65300, "BSTAR": 0.00039064862, "MEAN_MOTION_DOT": 9.97e-06, "MEAN_MOTION_DDOT": 0}, "tle": {"line1": "1 30831U 99025AVR 25350.23421280  .00000997  00000+0  39065-3 0  9997", "line2": "2 30831  99.3281 143.2521 0055408  24.0971 336.2784 14.31095192653004"}}, "geometry": {"type": "Point", "coordinates": [-27.90677760796378, 37.75107986745171]}}, {"type": "Feature", "properties": {"norad_id": 30833, "name": "FENGYUN 1C DEB", "group": "fengyun-1c-debris", "lat": 78.32213773067244, "lon": 81.20425165483441, "alt_km": 792.288041199844, "timestamp": "2025-12-17T15:50:10.058794+00:00", "meta": {"OBJECT_NAME": "FENGYUN 1C DEB", "OBJECT_ID": "1999-025AVT", "EPOCH": "2025-12-17T03:39:45.550656", "MEAN_MOTION": 14.26770389, "ECCENTRICITY": 0.00330645, "INCLINATION": 99.844, "RA_OF_ASC_NODE": 137.7822, "ARG_OF_PERICENTER": 168.3621, "MEAN_ANOMALY": 191.8327, "EPHEMERIS_TYPE": 0, "CLASSIFICATION_TYPE": "U", "NORAD_CAT_ID": 30833, "ELEMENT_SET_NO": 999, "REV_AT_EPOCH": 64474, "BSTAR": 0.00047701663, "MEAN_MOTION_DOT": 1.108e-05, "MEAN_MOTION_DDOT": 0}, "tle": {"line1": "1 30833U 99025AVT 25351.15261054  .00001108  00000+0  47702-3 0  9994", "line2": "2 30833  99.8440 137.7822 0033064 168.3621 191.8327 14.26770389644749"}}, "geometry": {"type": "Point", "coordinates": [81.20425165483441, 78.32213773067244]}}, {"type": "Feature", "properties": {"norad_id": 30836, "name": "FENGYUN 1C DEB", "group": "fengyun-1c-debris", "lat": -28.021565500246737, "lon": 28.89836550358095, "alt_km": 862.0913916448217, "timestamp": "2025-12-17T15:50:10.058805+00:00", "meta": {"OBJECT_NAME": "FENGYUN 1C DEB", "OBJECT_ID": "1999-025AVW", "EPOCH": "2025-12-15T19:45:04.449888", "MEAN_MOTION": 14.11938241, "ECCENTRICITY": 0.00257935, "INCLINATION": 98.7449, "RA_OF_ASC_NODE": 22.4088, "ARG_OF_PERICENTER": 235.6479, "MEAN_ANOMALY": 124.2252, "EPHEMERIS_TYPE": 0, "CLASSIFICATION_TYPE": "U", "NORAD_CAT_ID": 30836, "ELEMENT_SET_NO": 999, "REV_AT_EPOCH": 62047, "BSTAR": 0.00035769901, "MEAN_MOTION_DOT": 6.13e-06, "MEAN_MOTION_DDOT": 0}, "tle": {"line1": "1 30836U 99025AVW 25349.82296817  .00000613  00000+0  35770-3 0  9995", "line2": "2 30836  98.7449  22.4088 0025793 235.6479 124.2252 14.11938241620470"}}, "geometry": {"type": "Point", "coordinates": [28.89836550358095, -28.021565500246737]}}, {"type": "Feature", "properties": {"norad_id": 30837, "name": "FENGYUN 1C DEB", "group": "fengyun-1c-debris", "lat": 58.872982528663364, "lon": -36.8929656586996, "alt_km": 825.9958153757179, "timestamp": "2025-12-17T15:50:10.058815+00:00", "meta": {"OBJECT_NAME": "FENGYUN 1C DEB", "OBJECT_ID": "1999-025AVX", "EPOCH": "2025-12-16T22:50:26.759040", "MEAN_MOTION": 14.14527057, "ECCENTRICITY": 0.00331284, "INCLINATION": 98.6788, "RA_OF_ASC_NODE": 337.0698, "ARG_OF_PERICENTER": 121.5893, "MEAN_ANOMALY": 294.7451, "EPHEMERIS_TYPE": 0, "CLASSIFICATION_TYPE": "U", "NORAD_CAT_ID": 30837, "ELEMENT_SET_NO": 999, "REV_AT_EPOCH": 96878, "BSTAR": 0.00029971904, "MEAN_MOTION_DOT": 5.36e-06, "MEAN_MOTION_DDOT": 0}, "tle": {"line1": "1 30837U 99025AVX 25350.95169860  .00000536  00000+0  29972-3 0  9990", "line2": "2 30837  98.6788 337.0698 0033128 121.5893 294.7451 14.14527057968787"}}, "geometry": {"type": "Point", "coordinates": [-36.8929656586996, 58.872982528663364]}}, {"type": "Feature", "properties": {"norad_id": 30838, "name": "FENGYUN 1C DEB", "group": "fengyun-1c-debris", "lat": -63.62275903689422, "lon": -75.40010955993007, "alt_km": 761.4770559696717, "timestamp": "2025-12-17T15:50:10.058825+00:00", "meta": {"OBJECT_NAME": "FENGYUN 1C DEB", "OBJECT_ID": "1999-025AVY", "EPOCH": "2025-12-16T05:18:25.614720", "MEAN_MOTION": 14.47799826, "ECCENTRICITY": 0.00343042, "INCLINATION": 99.0428, "RA_OF_ASC_NODE": 264.3308, "ARG_OF_PERICENTER": 147.1927, "MEAN_ANOMALY": 213.1403, "EPHEMERIS_TYPE": 0, "CLASSIFICATION_TYPE": "U", "NORAD_CAT_ID": 30838, "ELEMENT_SET_NO": 999, "REV_AT_EPOCH": 97364, "BSTAR": 0.0016841128, "MEAN_MOTION_DOT": 6.228e-05, "MEAN_MOTION_DDOT": 0}, "tle": {"line1": "1 30838U 99025AVY 25350.22112980  .00006228  00000+0  16841-2 0  9996", "line2": "2 30838  99.0428 264.3308 0034304 147.1927 213.1403 14.47799826973647"}}, "geometry": {"type": "Point", "coordinates": [-75.40010955993007, -63.62275903689422]}}, {"type": "Feature", "properties": {"norad_id": 30840, "name": "FENGYUN 1C DEB", "group": "fengyun-1c-debris", "lat": -65.53021961453182, "lon": 20.91553327684194, "alt_km": 621.860402356102, "timestamp": "2025-12-17T15:50:10.058835+00:00", "meta": {"OBJECT_NAME": "FENGYUN 1C DEB", "OBJECT_ID": "1999-025AWA", "EPOCH": "2025-12-16T23:41:44.637216", "MEAN_MOTION": 14.61149407, "ECCENTRICITY": 0.02172587, "INCLINATION": 98.0229, "RA_OF_ASC_NODE": 2.2085, "ARG_OF_PERICENTER": 357.2954, "MEAN_ANOMALY": 2.7055, "EPHEMERIS_TYPE": 0, "CLASSIFICATION_TYPE": "U", "NORAD_CAT_ID": 30840, "ELEMENT_SET_NO": 999, "REV_AT_EPOCH": 73193, "BSTAR": 0.00064863542, "MEAN_MOTION_DOT": 4.411e-05, "MEAN_MOTION_DDOT": 0}, "tle": {"line1": "1 30840U 99025AWA 25350.98732219  .00004411  00000+0  64864-3 0  9996", "line2": "2 30840  98.0229   2.2085 0217258 357.2954   2.7055 14.61149407731933"}}, "geometry": {"type": "Point", "coordinates": [20.91553327684194, -65.53021961453182]}}, {"type": "Feature", "properties": {"norad_id": 30843, "name": "FENGYUN 1C DEB", "group": "fengyun-1c-debris", "lat": -30.95643303017772, "lon": 68.90648685762294, "alt_km": 798.8832526620299, "timestamp": "2025-12-17T15:50:10.058846+00:00", "meta": {"OBJECT_NAME": "FENGYUN 1C DEB", "OBJECT_ID": "1999-025AWD", "EPOCH": "2025-12-16T03:36:34.550496", "MEAN_MOTION": 14.52481471, "ECCENTRICITY": 0.01489512, "INCLINATION": 98.8423, "RA_OF_ASC_NODE": 61.9587, "ARG_OF_PERICENTER": 109.3582, "MEAN_ANOMALY": 252.3783, "EPHEMERIS_TYPE": 0, "CLASSIFICATION_TYPE": "U", "NORAD_CAT_ID": 30843, "ELEMENT_SET_NO": 999, "REV_AT_EPOCH": 99374, "BSTAR": 0.00015547941, "MEAN_MOTION_DOT": 6.77e-06, "MEAN_MOTION_DDOT": 0}, "tle": {"line1": "1 30843U 99025AWD 25350.15039989  .00000677  00000+0  15548-3 0  9997", "line2": "2 30843  98.8423  61.9587 0148951 109.3582 252.3783 14.52481471993745"}}, "geometry": {"type": "Point", "coordinates": [68.90648685762294, -30.95643303017772]}}, {"type": "Feature", "properties": {"norad_id": 30845, "name": "FENGYUN 1C DEB", "group": "fengyun-1c-debris", "lat": 1.0964126281789177, "lon": -8.502765891596608, "alt_km": 1009.5572071196148, "timestamp": "2025-12-17T15:50:10.058856+00:00", "meta": {"OBJECT_NAME": "FENGYUN 1C DEB", "OBJECT_ID": "1999-025AWF", "EPOCH": "2025-12-15T06:22:59.763072", "MEAN_MOTION": 13.76859994, "ECCENTRICITY": 0.01920382, "INCLINATION": 98.3793, "RA_OF_ASC_NODE": 349.5477, "ARG_OF_PERICENTER": 263.621, "MEAN_ANOMALY": 116.2524, "EPHEMERIS_TYPE": 0, "CLASSIFICATION_TYPE": "U", "NORAD_CAT_ID": 30845, "ELEMENT_SET_NO": 999, "REV_AT_EPOCH": 94278, "BSTAR": 0.00037762019, "MEAN_MOTION_DOT": 3.88e-06, "MEAN_MOTION_DDOT": 0}, "tle": {"line1": "1 30845U 99025AWF 25349.26596948  .00000388  00000+0  37762-3 0  9993", "line2": "2 30845  98.3793 349.5477 0192038 263.6210 116.2524 13.76859994942785"}}, "geometry": {"type": "Point", "coordinates": [-8.502765891596608, 1.0964126281789177]}}]}